NORAD_CAT_ID,OBJECT_NAME,OBJECT_TYPE,EPOCH,MEAN_MOTION,ECCENTRICITY,INCLINATION,RA_OF_ASC_NODE,ARG_OF_PERICENTER,MEAN_ANOMALY,BSTAR,MEAN_MOTION_DOT,MEAN_MOTION_DDOT,TLE_LINE0,TLE_LINE1,TLE_LINE2,SEMIMAJOR_AXIS,PERIOD,APOGEE,PERIGEE,DECAYED
55760.0,STARLINK-5532,PAYLOAD,2023-04-02 22:00:00,15.5242092,0.0003426,70.0005,70.7396,265.6035,316.0108,-0.016772,-0.00931581,0.0,0 STARLINK-5532,1 55760U 23028V   23092.91667824 -.00931581  00000-0 -16772-1 0  9990,2 55760  70.0005  70.7396 0003426 265.6035 316.0108 15.52420920  1304,6787.797,92.758,411.988,407.337,0.0
55760.0,STARLINK-5532,PAYLOAD,2023-04-03 06:00:00,15.51583948,0.0003497,70.0006,69.8269,274.2147,9.3694,-0.008741,-0.00489422,0.0,0 STARLINK-5532,1 55760U 23028V   23093.25001157 -.00489422  00000-0 -87410-2 0  9999,2 55760  70.0006  69.8269 0003497 274.2147   9.3694 15.51583948  5441,6790.238,92.808,414.477,409.728,0.0
55760.0,STARLINK-5532,PAYLOAD,2023-04-03 14:00:01,15.51242475,0.0003636,70.0003,68.9152,271.7945,72.9105,-0.00085089,-0.00049867,0.0,0 STARLINK-5532,1 55760U 23028V   23093.58334491 -.00049867  00000-0 -85089-3 0  9991,2 55760  70.0003  68.9152 0003636 271.7945  72.9105 15.51242475  5497,6791.234,92.829,415.569,410.63,0.0
55760.0,STARLINK-5532,PAYLOAD,2023-04-03 22:00:00,15.51199877,0.0003717,70.0006,68.0038,263.3336,142.2877,0.0008792,0.00051775,0.0,0 STARLINK-5532,1 55760U 23028V   23093.91667824  .00051775  00000-0  87920-3 0  9992,2 55760  70.0006  68.0038 0003717 263.3336 142.2877 15.51199877  1305,6791.359,92.831,415.748,410.699,0.0
55760.0,STARLINK-5532,PAYLOAD,2023-04-04 08:00:01,15.51216751,0.0003664,70.0007,66.8644,270.0871,301.7454,0.00043685,0.00025573,0.0,0 STARLINK-5532,1 55760U 23028V   23094.33335648  .00025573  00000-0  43685-3 0  9992,2 55760  70.0007  66.8644 0003664 270.0871 301.7454 15.51216751  5606,6791.309,92.83,415.663,410.686,0.0
55760.0,STARLINK-5532,PAYLOAD,2023-04-04 14:00:01,15.5124996,0.0003595,70.0006,66.181,267.5646,259.8832,-0.0012587,-0.0007349,0.0,0 STARLINK-5532,1 55760U 23028V   23094.58334491 -.00073490  00000-0 -12587-2 0  9993,2 55760  70.0006  66.1810 0003595 267.5646 259.8832 15.51249960  1301,6791.212,92.828,415.519,410.636,0.0
55760.0,STARLINK-5532,PAYLOAD,2023-04-04 22:00:00,15.51218165,0.0003619,70.001,65.27,261.3716,326.9764,0.00061782,0.00036285,0.0,0 STARLINK-5532,1 55760U 23028V   23094.91667824  .00036285  00000-0  61782-3 0  9990,2 55760  70.0010  65.2700 0003619 261.3716 326.9764 15.51218165  5690,6791.305,92.83,415.628,410.713,0.0
55760.0,STARLINK-5532,PAYLOAD,2023-04-05 14:00:01,15.51250205,0.000355,70.0007,63.4471,262.6275,87.5658,-0.0014119,-0.00082323,0.0,0 STARLINK-5532,1 55760U 23028V   23095.58334491 -.00082323  00000-0 -14119-2 0  9992,2 55760  70.0007  63.4471 0003550 262.6275  87.5658 15.51250205  1306,6791.212,92.828,415.488,410.666,0.0
55760.0,STARLINK-5532,PAYLOAD,2023-04-05 16:00:00,15.51195083,0.0003624,70.0009,63.2193,260.2231,195.2153,0.00033229,0.00019382,0.0,0 STARLINK-5532,1 55760U 23028V   23095.66667824  .00019382  00000-0  33229-3 0  9997,2 55760  70.0009  63.2193 0003624 260.2231 195.2153 15.51195083  5814,6791.373,92.832,415.699,410.776,0.0
55760.0,STARLINK-5532,PAYLOAD,2023-04-05 22:00:00,15.51213546,0.000363,70.0013,62.5358,257.3308,153.7637,0.00064422,0.00037844,0.0,0 STARLINK-5532,1 55760U 23028V   23095.91667824  .00037844  00000-0  64422-3 0  9997,2 55760  70.0013  62.5358 0003630 257.3308 153.7637 15.51213546  1304,6791.319,92.831,415.649,410.719,0.0
55760.0,STARLINK-5532,PAYLOAD,2023-04-06 14:00:01,15.51233264,0.0003585,70.0013,60.713,260.5416,272.4555,-0.00054531,-0.00032078,0.0,0 STARLINK-5532,1 55760U 23028V   23096.58335648 -.00032078  00000-0 -54531-3 0  9993,2 55760  70.0013  60.7130 0003585 260.5416 272.4555 15.51233264  1304,6791.261,92.829,415.561,410.692,0.0
55760.0,STARLINK-5532,PAYLOAD,2023-04-06 22:00:00,15.51249777,0.0003645,70.0017,59.8019,256.4518,337.3799,-0.00026335,-0.00015618,0.0,0 STARLINK-5532,1 55760U 23028V   23096.91667824 -.00015618  00000-0 -26335-3 0  9996,2 55760  70.0017  59.8019 0003645 256.4518 337.3799 15.51249777  1304,6791.213,92.828,415.553,410.603,0.0
55760.0,STARLINK-5532,PAYLOAD,2023-04-07 00:00:00,15.51275047,0.0003665,70.0017,59.574,258.5999,80.4592,-0.0013284,-0.0007758,0.0,0 STARLINK-5532,1 55760U 23028V   23097.00001157 -.00077580  00000-0 -13284-2 0  9992,2 55760  70.0017  59.5740 0003665 258.5999  80.4592 15.51275047  6020,6791.139,92.827,415.493,410.515,0.0
55760.0,STARLINK-5532,PAYLOAD,2023-04-07 06:16:51,15.51231951,0.0003293,70.0014,58.8586,255.7274,104.3547,5.8655e-05,3.283e-05,0.0,0 STARLINK-5532,1 55760U 23028V   23097.26170968  .00003283  00000-0  58655-4 0  9997,2 55760  70.0014  58.8586 0003293 255.7274 104.3547 15.51231951  6065,6791.265,92.829,415.366,410.894,0.0
55760.0,STARLINK-5532,PAYLOAD,2023-04-08 03:56:52,15.51226373,0.0003266,69.9996,56.3925,258.7393,101.3426,2.5678e-05,1.344e-05,0.0,0 STARLINK-5532,1 55760U 23028V   23098.16449456  .00001344  00000-0  25678-4 0  9993,2 55760  69.9996  56.3925 0003266 258.7393 101.3426 15.51226373  6207,6791.281,92.83,415.364,410.928,0.0
55760.0,STARLINK-5532,PAYLOAD,2023-04-08 08:35:26,15.51223768,0.0003523,69.9989,55.8622,261.3796,98.6991,1.9745e-05,9.95e-06,0.0,0 STARLINK-5532,1 55760U 23028V   23098.35794968  .00000995  00000-0  19745-4 0  9994,2 55760  69.9989  55.8622 0003523 261.3796  98.6991 15.51223768  6244,6791.289,92.83,415.547,410.761,0.0
55760.0,STARLINK-5532,PAYLOAD,2023-04-09 06:15:55,15.50858171,0.0003542,70.0009,53.3986,275.2213,84.8568,-0.0008197,-0.00047409,0.0,0 STARLINK-5532,1 55760U 23028V   23099.26106190 -.00047409  00000-0 -81970-3 0  9990,2 55760  70.0009  53.3986 0003542 275.2213  84.8568 15.50858171  6377,6792.356,92.852,416.627,411.815,0.0
55760.0,STARLINK-5532,PAYLOAD,2023-04-09 21:45:41,15.50122692,0.0003183,69.9996,51.6367,267.1663,92.9158,-0.0023717,-0.0013193,0.0,0 STARLINK-5532,1 55760U 23028V   23099.90673287 -.00131930  00000-0 -23717-2 0  9994,2 55760  69.9996  51.6367 0003183 267.1663  92.9158 15.50122692  6471,6794.505,92.896,418.532,414.207,0.0
55760.0,STARLINK-5532,PAYLOAD,2023-04-10 10:00:00,15.48258999,0.0003369,70.0019,50.2433,269.256,55.9124,-0.020011,-0.00969648,0.0,0 STARLINK-5532,1 55760U 23028V   23100.41667824 -.00969648  00000-0 -20011-1 0  9991,2 55760  70.0019  50.2433 0003369 269.2560  55.9124 15.48258999  6552,6799.956,93.008,424.112,419.53,0.0
55760.0,STARLINK-5532,PAYLOAD,2023-04-10 14:00:01,15.47879015,0.0003207,70.0022,49.7897,266.899,266.8493,-0.018322,-0.0087151,0.0,0 STARLINK-5532,1 55760U 23028V   23100.58334491 -.00871510  00000-0 -18322-1 0  9992,2 55760  70.0022  49.7897 0003207 266.8990 266.8493 15.47879015  1301,6801.069,93.031,425.115,420.753,0.0
55760.0,STARLINK-5532,PAYLOAD,2023-04-10 22:00:00,15.47280227,0.0003353,70.0024,48.8839,264.1909,326.0717,-0.020486,-0.00960143,0.0,0 STARLINK-5532,1 55760U 23028V   23100.91667824 -.00960143  00000-0 -20486-1 0  9993,2 55760  70.0024  48.8839 0003353 264.1909 326.0717 15.47280227  1301,6802.823,93.067,426.969,422.407,0.0
55760.0,STARLINK-5532,PAYLOAD,2023-04-11 00:00:02,15.47105121,0.0003547,70.0024,48.6574,267.2035,67.1437,-0.020471,-0.00954201,0.0,0 STARLINK-5532,1 55760U 23028V   23101.00002315 -.00954201  00000-0 -20471-1 0  9994,2 55760  70.0024  48.6574 0003547 267.2035  67.1437 15.47105121  6647,6803.337,93.077,427.615,422.788,0.0
55760.0,STARLINK-5532,PAYLOAD,2023-04-11 12:00:00,15.46121699,0.0003395,70.0018,47.2998,270.2451,327.0784,-0.021028,-0.00947851,0.0,0 STARLINK-5532,1 55760U 23028V   23101.50001157 -.00947851  00000-0 -21028-1 0  9994,2 55760  70.0018  47.2998 0003395 270.2451 327.0784 15.46121699  6710,6806.221,93.136,430.397,425.775,0.0
55760.0,STARLINK-5532,PAYLOAD,2023-04-12 14:00:01,15.43965107,0.0003406,70.0019,44.3652,269.0938,232.1237,-0.020924,-0.00881443,0.0,0 STARLINK-5532,1 55760U 23028V   23102.58334491 -.00881443  00000-0 -20924-1 0  9991,2 55760  70.0019  44.3652 0003406 269.0938 232.1237 15.43965107  1301,6812.558,93.266,436.743,432.102,0.0
55760.0,STARLINK-5532,PAYLOAD,2023-04-13 12:00:00,15.42203958,0.0003334,70.0017,41.8896,272.7263,279.1596,-0.023882,-0.00942524,0.0,0 STARLINK-5532,1 55760U 23028V   23103.50001157 -.00942524  00000-0 -23882-1 0  9998,2 55760  70.0017  41.8896 0003334 272.7263 279.1596 15.42203958  1300,6817.743,93.373,441.881,437.335,0.0
55760.0,STARLINK-5532,PAYLOAD,2023-04-13 22:00:00,15.41413866,0.0003563,70.002,40.7667,268.976,74.8903,-0.025434,-0.00974671,0.0,0 STARLINK-5532,1 55760U 23028V   23103.91667824 -.00974671  00000-0 -25434-1 0  9995,2 55760  70.0020  40.7667 0003563 268.9760  74.8903 15.41413866  7095,6820.073,93.421,444.368,439.508,0.0
55760.0,STARLINK-5532,PAYLOAD,2023-04-14 14:00:01,15.40034826,0.0003353,70.0019,38.9725,271.103,169.4913,-0.023026,-0.00852538,0.0,0 STARLINK-5532,1 55760U 23028V   23104.58335648 -.00852538  00000-0 -23026-1 0  9997,2 55760  70.0019  38.9725 0003353 271.1030 169.4913 15.40034826  1304,6824.143,93.504,448.297,443.72,0.0
55760.0,STARLINK-5532,PAYLOAD,2023-04-14 18:00:00,15.39751794,0.0003372,70.0019,38.5247,265.9496,18.232,-0.024869,-0.00907503,0.0,0 STARLINK-5532,1 55760U 23028V   23104.75001157 -.00907503  00000-0 -24869-1 0  9990,2 55760  70.0019  38.5247 0003372 265.9496  18.2320 15.39751794  7225,6824.98,93.522,449.146,444.543,0.0
55760.0,STARLINK-5532,PAYLOAD,2023-04-15 14:00:01,15.38078751,0.0003198,70.002,36.2879,267.7555,311.8657,-0.024498,-0.00850684,0.0,0 STARLINK-5532,1 55760U 23028V   23105.58334491 -.00850684  00000-0 -24498-1 0  9997,2 55760  70.0020  36.2879 0003198 267.7555 311.8657 15.38078751  7347,6829.928,93.623,453.977,449.609,0.0
55760.0,STARLINK-5532,PAYLOAD,2023-04-15 22:00:01,15.37490686,0.0003253,70.0024,35.395,266.1148,358.3508,-0.028512,-0.00961165,0.0,0 STARLINK-5532,1 55760U 23028V   23105.91668981 -.00961165  00000-0 -28512-1 0  9996,2 55760  70.0024  35.3950 0003253 266.1148 358.3508 15.37490686  1309,6831.669,93.659,455.757,451.312,0.0
